{"type": "FeatureCollection", "features": [ {"type": "Feature", "properties": {"norad_id": 30960, "name": "FENGYUN 1C DEB", "group": "fengyun-1c-debris", "lat": -80.61516762087534, "lon": 179.22657743068956, "alt_km": 743.3336803817347, "timestamp": "2025-12-15T10:55:21.422928+00:00", "meta": {"OBJECT_NAME": "FENGYUN 1C DEB", "OBJECT_ID": "1999-025BBA", "EPOCH": "2025-12-13T13:29:46.183776", "MEAN_MOTION": 14.66901873, "ECCENTRICITY": 0.01962656, "INCLINATION": 99.0001, "RA_OF_ASC_NODE": 103.6238, "ARG_OF_PERICENTER": 159.3773, "MEAN_ANOMALY": 201.5492, "EPHEMERIS_TYPE": 0, "CLASSIFICATION_TYPE": "U", "NORAD_CAT_ID": 30960, "ELEMENT_SET_NO": 999, "REV_AT_EPOCH": 98710, "BSTAR": 0.0016999508, "MEAN_MOTION_DOT": 0.00012649, "MEAN_MOTION_DDOT": 0}, "tle": {"line1": "1 30960U 99025BBA 25347.56234009  .00012649  00000+0  17000-2 0  9994", "line2": "2 30960  99.0001 103.6238 0196265 159.3773 201.5492 14.66901873987109"}}, "geometry": {"type": "Point", "coordinates": [179.22657743068956, -80.61516762087534]}}, {"type": "Feature", "properties": {"norad_id": 30967, "name": "FENGYUN 1C DEB", "group": "fengyun-1c-debris", "lat": 42.520369014530544, "lon": -72.31727824114867, "alt_km": 765.2057618933404, "timestamp": "2025-12-15T10:55:21.422938+00:00", "meta": {"OBJECT_NAME": "FENGYUN 1C DEB", "OBJECT_ID": "1999-025BBH", "EPOCH": "2025-12-14T01:45:42.925536", "MEAN_MOTION": 14.57154983, "ECCENTRICITY": 0.0094701, "INCLINATION": 98.7628, "RA_OF_ASC_NODE": 294.3609, "ARG_OF_PERICENTER": 235.5211, "MEAN_ANOMALY": 123.7013, "EPHEMERIS_TYPE": 0, "CLASSIFICATION_TYPE": "U", "NORAD_CAT_ID": 30967, "ELEMENT_SET_NO": 999, "REV_AT_EPOCH": 99033, "BSTAR": 0.0009190923, "MEAN_MOTION_DOT": 4.353e-05, "MEAN_MOTION_DDOT": 0}, "tle": {"line1": "1 30967U 99025BBH 25348.07341349  .00004353  00000+0  91909-3 0  9998", "line2": "2 30967  98.7628 294.3609 0094701 235.5211 123.7013 14.57154983990338"}}, "geometry": {"type": "Point", "coordinates": [-72.31727824114867, 42.520369014530544]}}, {"type": "Feature", "properties": {"norad_id": 30971, "name": "FENGYUN 1C DEB", "group": "fengyun-1c-debris", "lat": 28.377544247350066, "lon": 28.633068575471828, "alt_km": 757.3730673124765, "timestamp": "2025-12-15T10:55:21.422949+00:00", "meta": {"OBJECT_NAME": "FENGYUN 1C DEB", "OBJECT_ID": "1999-025BBM", "EPOCH": "2025-12-14T08:45:01.580832", "MEAN_MOTION": 14.71723494, "ECCENTRICITY": 0.01638219, "INCLINATION": 99.2103, "RA_OF_ASC_NODE": 32.4279, "ARG_OF_PERICENTER": 186.1602, "MEAN_ANOMALY": 189.1683, "EPHEMERIS_TYPE": 0, "CLASSIFICATION_TYPE": "U", "NORAD_CAT_ID": 30971, "ELEMENT_SET_NO": 999, "REV_AT_EPOCH": 99741, "BSTAR": 0.00065540034, "MEAN_MOTION_DOT": 4.976e-05, "MEAN_MOTION_DDOT": 0}, "tle": {"line1": "1 30971U 99025BBM 25348.36460163  .00004976  00000+0  65540-3 0  9994", "line2": "2 30971  99.2103  32.4279 0163821 186.1602 189.1683 14.71723494997416"}}, "geometry": {"type": "Point", "coordinates": [28.633068575471828, 28.377544247350066]}}, {"type": "Feature", "properties": {"norad_id": 30979, "name": "FENGYUN 1C DEB", "group": "fengyun-1c-debris", "lat": 28.69404023596436, "lon": 72.15154330557486, "alt_km": 609.3494734795895, "timestamp": "2025-12-15T10:55:21.422959+00:00", "meta": {"OBJECT_NAME": "FENGYUN 1C DEB", "OBJECT_ID": "1999-025BBV", "EPOCH": "2025-12-14T16:30:08.594208", "MEAN_MOTION": 14.78819926, "ECCENTRICITY": 0.01901203, "INCLINATION": 97.8306, "RA_OF_ASC_NODE": 247.0841, "ARG_OF_PERICENTER": 234.8144, "MEAN_ANOMALY": 154.6875, "EPHEMERIS_TYPE": 0, "CLASSIFICATION_TYPE": "U", "NORAD_CAT_ID": 30979, "ELEMENT_SET_NO": 999, "REV_AT_EPOCH": 99174, "BSTAR": 0.00083838309, "MEAN_MOTION_DOT": 8.314e-05, "MEAN_MOTION_DDOT": 0}, "tle": {"line1": "1 30979U 99025BBV 25348.68759947  .00008314  00000+0  83838-3 0  9998", "line2": "2 30979  97.8306 247.0841 0190120 234.8144 154.6875 14.78819926991749"}}, "geometry": {"type": "Point", "coordinates": [72.15154330557486, 28.69404023596436]}}, {"type": "Feature", "properties": {"norad_id": 30982, "name": "FENGYUN 1C DEB", "group": "fengyun-1c-debris", "lat": 78.281297545474, "lon": -156.21838493841784, "alt_km": 830.0172414948584, "timestamp": "2025-12-15T10:55:21.422968+00:00", "meta": {"OBJECT_NAME": "FENGYUN 1C DEB", "OBJECT_ID": "1999-025BBY", "EPOCH": "2025-12-13T22:11:24.804096", "MEAN_MOTION": 14.50956021, "ECCENTRICITY": 0.01803674, "INCLINATION": 98.2166, "RA_OF_ASC_NODE": 338.1324, "ARG_OF_PERICENTER": 308.9069, "MEAN_ANOMALY": 78.6672, "EPHEMERIS_TYPE": 0, "CLASSIFICATION_TYPE": "U", "NORAD_CAT_ID": 30982, "ELEMENT_SET_NO": 999, "REV_AT_EPOCH": 71071, "BSTAR": 0.00046336031, "MEAN_MOTION_DOT": 2.206e-05, "MEAN_MOTION_DDOT": 0}, "tle": {"line1": "1 30982U 99025BBY 25347.92459264  .00002206  00000+0  46336-3 0  9993", "line2": "2 30982  98.2166 338.1324 0180367 308.9069  78.6672 14.50956021710715"}}, "geometry": {"type": "Point", "coordinates": [-156.21838493841784, 78.281297545474]}}, {"type": "Feature", "properties": {"norad_id": 30984, "name": "FENGYUN 1C DEB", "group": "fengyun-1c-debris", "lat": -30.5256496867103, "lon": 30.659372994968155, "alt_km": 651.9902036558778, "timestamp": "2025-12-15T10:55:21.422978+00:00", "meta": {"OBJECT_NAME": "FENGYUN 1C DEB", "OBJECT_ID": "1999-025BCA", "EPOCH": "2025-12-14T08:34:17.695200", "MEAN_MOTION": 14.50446749, "ECCENTRICITY": 0.0127269, "INCLINATION": 98.2639, "RA_OF_ASC_NODE": 24.6654, "ARG_OF_PERICENTER": 3.1447, "MEAN_ANOMALY": 357.0519, "EPHEMERIS_TYPE": 0, "CLASSIFICATION_TYPE": "U", "NORAD_CAT_ID": 30984, "ELEMENT_SET_NO": 999, "REV_AT_EPOCH": 95187, "BSTAR": 0.00088527439, "MEAN_MOTION_DOT": 3.793e-05, "MEAN_MOTION_DDOT": 0}, "tle": {"line1": "1 30984U 99025BCA 25348.35714925  .00003793  00000+0  88527-3 0  9991", "line2": "2 30984  98.2639  24.6654 0127269   3.1447 357.0519 14.50446749951870"}}, "geometry": {"type": "Point", "coordinates": [30.659372994968155, -30.5256496867103]}}, {"type": "Feature", "properties": {"norad_id": 30988, "name": "FENGYUN 1C DEB", "group": "fengyun-1c-debris", "lat": -45.59648633955357, "lon": -53.96826117277396, "alt_km": 419.1042839780166, "timestamp": "2025-12-15T10:55:21.422997+00:00", "meta": {"OBJECT_NAME": "FENGYUN 1C DEB", "OBJECT_ID": "1999-025BCE", "EPOCH": "2025-12-13T19:47:23.460576", "MEAN_MOTION": 15.26353987, "ECCENTRICITY": 0.01126053, "INCLINATION": 98.54, "RA_OF_ASC_NODE": 295.3431, "ARG_OF_PERICENTER": 336.54, "MEAN_ANOMALY": 23.0719, "EPHEMERIS_TYPE": 0, "CLASSIFICATION_TYPE": "U", "NORAD_CAT_ID": 30988, "ELEMENT_SET_NO": 999, "REV_AT_EPOCH": 99580, "BSTAR": 0.0020604581, "MEAN_MOTION_DOT": 0.00064818, "MEAN_MOTION_DDOT": 0}, "tle": {"line1": "1 30988U 99025BCE 25347.82457709  .00064818  00000+0  20605-2 0  9997", "line2": "2 30988  98.5400 295.3431 0112605 336.5400  23.0719 15.26353987995801"}}, "geometry": {"type": "Point", "coordinates": [-53.96826117277396, -45.59648633955357]}}, {"type": "Feature", "properties": {"norad_id": 30989, "name": "FENGYUN 1C DEB", "group": "fengyun-1c-debris", "lat": 71.0229020682364, "lon": 35.43271992852474, "alt_km": 776.8543787606459, "timestamp": "2025-12-15T10:55:21.423008+00:00", "meta": {"OBJECT_NAME": "FENGYUN 1C DEB", "OBJECT_ID": "1999-025BCF", "EPOCH": "2025-12-14T17:35:51.396000", "MEAN_MOTION": 14.13947399, "ECCENTRICITY": 0.00908011, "INCLINATION": 99.0535, "RA_OF_ASC_NODE": 62.3251, "ARG_OF_PERICENTER": 94.2335, "MEAN_ANOMALY": 266.922, "EPHEMERIS_TYPE": 0, "CLASSIFICATION_TYPE": "U", "NORAD_CAT_ID": 30989, "ELEMENT_SET_NO": 999, "REV_AT_EPOCH": 96016, "BSTAR": 0.0013516315, "MEAN_MOTION_DOT": 2.624e-05, "MEAN_MOTION_DDOT": 0}, "tle": {"line1": "1 30989U 99025BCF 25348.73323375  .00002624  00000+0  13516-2 0  9990", "line2": "2 30989  99.0535  62.3251 0090801  94.2335 266.9220 14.13947399960164"}}, "geometry": {"type": "Point", "coordinates": [35.43271992852474, 71.0229020682364]}}, {"type": "Feature", "properties": {"norad_id": 30993, "name": "FENGYUN 1C DEB", "group": "fengyun-1c-debris", "lat": -39.89823358762732, "lon": -105.51819285781549, "alt_km": 789.6027072536135, "timestamp": "2025-12-15T10:55:21.423018+00:00", "meta": {"OBJECT_NAME": "FENGYUN 1C DEB", "OBJECT_ID": "1999-025BCK", "EPOCH": "2025-12-14T17:52:28.257600", "MEAN_MOTION": 14.35449612, "ECCENTRICITY": 0.00162221, "INCLINATION": 98.8462, "RA_OF_ASC_NODE": 81.2353, "ARG_OF_PERICENTER": 8.2173, "MEAN_ANOMALY": 143.5975, "EPHEMERIS_TYPE": 0, "CLASSIFICATION_TYPE": "U", "NORAD_CAT_ID": 30993, "ELEMENT_SET_NO": 999, "REV_AT_EPOCH": 96948, "BSTAR": 0.0016004068, "MEAN_MOTION_DOT": 4.562e-05, "MEAN_MOTION_DDOT": 0}, "tle": {"line1": "1 30993U 99025BCK 25348.74477150  .00004562  00000+0  16004-2 0  9995", "line2": "2 30993  98.8462  81.2353 0016222   8.2173 143.5975 14.35449612969488"}}, "geometry": {"type": "Point", "coordinates": [-105.51819285781549, -39.89823358762732]}}, {"type": "Feature", "properties": {"norad_id": 30994, "name": "FENGYUN 1C DEB", "group": "fengyun-1c-debris", "lat": 26.637095461965608, "lon": -6.586445817501851, "alt_km": 862.1694493869209, "timestamp": "2025-12-15T10:55:21.423028+00:00", "meta": {"OBJECT_NAME": "FENGYUN 1C DEB", "OBJECT_ID": "1999-025BCL", "EPOCH": "2025-12-14T16:05:04.030656", "MEAN_MOTION": 14.11771964, "ECCENTRICITY": 0.00179476, "INCLINATION": 98.6999, "RA_OF_ASC_NODE": 357.057, "ARG_OF_PERICENTER": 169.1945, "MEAN_ANOMALY": 190.9616, "EPHEMERIS_TYPE": 0, "CLASSIFICATION_TYPE": "U", "NORAD_CAT_ID": 30994, "ELEMENT_SET_NO": 999, "REV_AT_EPOCH": 96612, "BSTAR": 0.00020934345, "MEAN_MOTION_DOT": 3.4e-06, "MEAN_MOTION_DDOT": 0}, "tle": {"line1": "1 30994U 99025BCL 25348.67018554  .00000340  00000+0  20934-3 0  9995", "line2": "2 30994  98.6999 357.0570 0017947 169.1945 190.9616 14.11771964966124"}}, "geometry": {"type": "Point", "coordinates": [-6.586445817501851, 26.637095461965608]}}]}